OBJECT_NAME,OBJECT_ID,EPOCH,MEAN_MOTION,ECCENTRICITY,INCLINATION,RA_OF_ASC_NODE,ARG_OF_PERICENTER,MEAN_ANOMALY,EPHEMERIS_TYPE,CLASSIFICATION_TYPE,NORAD_CAT_ID,ELEMENT_SET_NO,REV_AT_EPOCH,BSTAR,MEAN_MOTION_DOT,MEAN_MOTION_DDOT
CUBEBUG-2 (LO-74),2013-066AA,2026-07-07T07:00:14.378112,14.93935374,.0056237,97.8912,137.3576,322.3373,37.3914,0,U,39440,999,67999,.23991E-3,.257E-4,0
FUNCUBE-1 (AO-73),2013-066AE,2026-07-06T21:00:48.915360,15.09744377,.0037536,97.8282,159.7358,134.9216,225.5068,0,U,39444,999,68263,.37306E-3,.6051E-4,0
UWE-3,2013-066AG,2026-07-07T08:00:24.462144,14.97168353,.0047497,97.8699,144.5465,252.0164,107.5878,0,U,39446,999,68059,.18297E-3,.2099E-4,0
UNISAT-6,2014-033C,2026-07-07T08:53:02.476320,14.88345132,.0044829,97.7902,340.7302,3.7872,356.3675,0,U,40012,999,64916,.23037E-3,.2115E-4,0
DUCHIFAT-1,2014-033M,2026-07-06T16:39:29.772576,15.69242725,.0001149,98.0433,249.6610,272.1887,87.9241,0,U,40021,999,65880,.10018E-2,.117855E-2,0
QB50P1,2014-033R,2026-07-06T23:39:44.400384,15.18579991,.0009775,98.0969,200.5237,149.2946,210.8860,0,U,40025,999,65603,.3291E-3,.6736E-4,0
LILACSAT-2,2015-049K,2026-07-07T12:29:20.743008,15.52159194,.0007752,97.4628,226.1408,164.7415,195.4073,0,U,40908,999,59890,.2288E-3,.13763E-3,0
FOX-1A (AO-85),2015-058D,2026-07-07T12:59:41.833824,14.91059408,.0131774,64.7734,215.7243,48.7119,312.5249,0,U,40967,999,11660,.17269E-3,.1843E-4,0
CAS-2T & KS-1Q,2016-066G,2026-07-07T04:29:11.576256,14.44757434,.0342626,98.3815,263.6944,69.0010,294.7475,0,U,41847,999,50768,.17577E-3,.1203E-4,0
RADFXSAT (FOX-1B),2017-073E,2026-07-07T01:12:49.095072,15.12990086,.014816,97.4678,54.8599,259.9195,98.5293,0,U,43017,999,46839,.24356E-3,.5556E-4,0
DIWATA-2B,2018-084H,2026-07-07T12:13:02.216352,15.00543795,.0013058,98.1215,25.6051,107.6352,252.6298,0,U,43678,999,41926,.16471E-3,.2015E-4,0
ES'HAIL 2,2018-090A,2026-07-07T07:01:32.373984,1.00272483,.0002327,0.0187,293.6852,217.7947,264.9793,0,U,43700,999,2787,0,.159E-5,0
FOX-1CLIFF (AO-95),2018-099N,2026-07-07T03:08:32.809056,15.27157172,.000693,97.4371,248.3079,274.3916,85.6531,0,U,43770,999,41626,.31834E-3,.8409E-4,0
ITASAT,2018-099AE,2026-07-06T17:11:00.697056,15.19312324,.0010723,97.4015,238.8395,284.8338,75.1709,0,U,43786,999,41587,.22248E-3,.4636E-4,0
JY1SAT (JO-97),2018-099AX,2026-07-05T14:55:56.187840,15.34293802,.00059834,97.4115,249.5264,188.7802,171.3337,0,U,43803,999,41645,.68069126E-3,.22572E-3,0
UWE-4,2018-111E,2026-07-07T06:29:11.143104,15.47445666,.0004892,97.5838,117.6044,228.1890,131.8942,0,U,43880,999,41388,.49609E-3,.25394E-3,0
TIANYAN 01,2019-093C,2026-07-07T12:10:52.478976,14.86556721,.0014272,97.7521,260.2441,26.2466,333.9470,0,U,44881,999,35443,.14807E-3,.126E-4,0
RS-44 & BREEZE-KM R/B,2019-096E,2026-07-07T07:58:23.585088,12.79748960,.0218596,82.5237,326.3182,97.2854,265.3149,0,U,44909,999,30492,.20916E-4,.18E-6,0
SALSAT,2020-068K,2026-07-06T23:06:33.434208,15.30092809,.0008388,97.8858,192.2352,224.1445,135.9125,0,U,46495,999,31838,.20799E-3,.5977E-4,0
XW-3 (CAS-9),2021-131B,2026-07-07T12:47:43.099008,14.41378030,.0004987,98.4982,280.8136,50.0263,310.1364,0,U,50466,999,23804,.17249E-3,.515E-5,0
GREENCUBE (IO-117),2022-080E,2026-07-07T06:16:24.697344,6.42583238,.0008969,70.1426,291.2647,285.4121,74.5548,0,U,53109,999,9335,0,-.3E-7,0
UMKA 1 (RS40S),2023-091G,2026-07-07T03:50:43.407168,15.21060637,.0013731,97.5037,246.7822,55.5418,304.7112,0,U,57172,999,16704,.21194E-3,.4648E-4,0
CUBESX-HSE 3 (RS42S),2023-091N,2026-07-07T04:01:20.213184,15.31747800,.0010542,97.5077,254.0129,30.3133,329.8716,0,U,57178,999,16748,.31149E-3,.9486E-4,0
MONITOR-3 (RS58S),2023-091Q,2026-07-07T11:58:07.412160,15.28270173,.0011811,97.5071,252.0979,36.0814,324.1220,0,U,57180,999,16739,.26119E-3,.7131E-4,0
MONITOR-4 (RS57S),2023-091S,2026-07-07T09:52:03.734976,15.28355253,.0011823,97.5064,251.9820,36.7395,323.4653,0,U,57182,999,16738,.2729E-3,.7474E-4,0
MONITOR-2 (RS39S),2023-091U,2026-07-07T11:17:14.385696,15.19107607,.0012107,97.5060,246.6230,48.9693,311.2586,0,U,57184,999,16703,.15955E-3,.3285E-4,0
SVYATOBOR 1 (RS60S),2023-091X,2026-07-07T12:10:52.936896,15.26976645,.0009536,97.5077,252.4402,31.0396,329.1404,0,U,57187,999,16741,.229E-3,.5996E-4,0
VIZARD-METEO (RS38S),2023-091Z,2026-07-07T12:48:41.319648,15.36705457,.0006419,97.5078,258.4347,10.0320,350.1051,0,U,57189,999,16781,.33899E-3,.12083E-3,0
POLYTECH-UNIVERSE 3 (RS46S),2023-091AB,2026-07-07T11:52:27.646752,15.19318420,.001666,97.5035,246.1516,62.6550,297.6378,0,U,57191,999,16703,.17926E-3,.3729E-4,0
UTMN 2 (RS27S),2023-091AP,2026-07-07T12:01:12.092160,15.32573713,.0007561,97.5074,256.0090,18.3435,341.8077,0,U,57203,999,16765,.27907E-3,.8706E-4,0
