CUBEBUG-2 (LO-74)       
1 39440U 13066AA  26188.29183308  .00002570  00000+0  23991-3 0  9995
2 39440  97.8912 137.3576 0056237 322.3373  37.3914 14.93935374679991
FUNCUBE-1 (AO-73)       
1 39444U 13066AE  26187.87556615  .00006051  00000+0  37306-3 0  9990
2 39444  97.8282 159.7358 0037536 134.9216 225.5068 15.09744377682630
UWE-3                   
1 39446U 13066AG  26188.33361646  .00002099  00000+0  18297-3 0  9998
2 39446  97.8699 144.5465 0047497 252.0164 107.5878 14.97168353680597
UNISAT-6                
1 40012U 14033C   26188.37016755  .00002115  00000+0  23037-3 0  9993
2 40012  97.7902 340.7302 0044829   3.7872 356.3675 14.88345132649166
DUCHIFAT-1              
1 40021U 14033M   26187.69409459  .00117855  00000+0  10018-2 0  9996
2 40021  98.0433 249.6610 0001149 272.1887  87.9241 15.69242725658805
QB50P1                  
1 40025U 14033R   26187.98593056  .00006736  00000+0  32910-3 0  9990
2 40025  98.0969 200.5237 0009775 149.2946 210.8860 15.18579991656036
LILACSAT-2              
1 40908U 15049K   26188.52037897  .00013763  00000+0  22880-3 0  9998
2 40908  97.4628 226.1408 0007752 164.7415 195.4073 15.52159194598903
FOX-1A (AO-85)          
1 40967U 15058D   26188.54145641  .00001843  00000+0  17269-3 0  9993
2 40967  64.7734 215.7243 0131774  48.7119 312.5249 14.91059408116607
CAS-2T & KS-1Q          
1 41847U 16066G   26188.18693954  .00001203  00000+0  17577-3 0  9998
2 41847  98.3815 263.6944 0342626  69.0010 294.7475 14.44757434507680
RADFXSAT (FOX-1B)       
1 43017U 17073E   26188.05056823  .00005556  00000+0  24356-3 0  9990
2 43017  97.4678  54.8599 0148160 259.9195  98.5293 15.12990086468395
DIWATA-2B               
1 43678U 18084H   26188.50905343  .00002015  00000+0  16471-3 0  9992
2 43678  98.1215  25.6051 0013058 107.6352 252.6298 15.00543795419261
ES'HAIL 2               
1 43700U 18090A   26188.29273581  .00000159  00000+0  00000+0 0  9997
2 43700   0.0187 293.6852 0002327 217.7947 264.9793  1.00272483 27879
FOX-1CLIFF (AO-95)      
1 43770U 18099N   26188.13093529  .00008409  00000+0  31834-3 0  9997
2 43770  97.4371 248.3079 0006930 274.3916  85.6531 15.27157172416262
ITASAT                  
1 43786U 18099AE  26187.71598029  .00004636  00000+0  22248-3 0  9999
2 43786  97.4015 238.8395 0010723 284.8338  75.1709 15.19312324415878
JY1SAT (JO-97)          
1 43803U 18099AX  26186.62217810  .00022572  00000+0  68069-3 0  9994
2 43803  97.4115 249.5264 0005983 188.7802 171.3337 15.34293802416450
UWE-4                   
1 43880U 18111E   26188.27026786  .00025394  00000+0  49609-3 0  9991
2 43880  97.5838 117.6044 0004892 228.1890 131.8942 15.47445666413881
TIANYAN 01              
1 44881U 19093C   26188.50755184  .00001260  00000+0  14807-3 0  9998
2 44881  97.7521 260.2441 0014272  26.2466 333.9470 14.86556721354432
RS-44 & BREEZE-KM R/B   
1 44909U 19096E   26188.33221742  .00000018  00000+0  20916-4 0  9990
2 44909  82.5237 326.3182 0218596  97.2854 265.3149 12.79748960304927
SALSAT                  
1 46495U 20068K   26187.96288697  .00005977  00000+0  20799-3 0  9990
2 46495  97.8858 192.2352 0008388 224.1445 135.9125 15.30092809318384
XW-3 (CAS-9)            
1 50466U 21131B   26188.53313772  .00000515  00000+0  17249-3 0  9991
2 50466  98.4982 280.8136 0004987  50.0263 310.1364 14.41378030238041
GREENCUBE (IO-117)      
1 53109U 22080E   26188.26139696 -.00000003  00000+0  00000+0 0  9999
2 53109  70.1426 291.2647 0008969 285.4121  74.5548  6.42583238 93350
UMKA 1 (RS40S)          
1 57172U 23091G   26188.16022462  .00004648  00000+0  21194-3 0  9996
2 57172  97.5037 246.7822 0013731  55.5418 304.7112 15.21060637167046
CUBESX-HSE 3 (RS42S)    
1 57178U 23091N   26188.16759506  .00009486  00000+0  31149-3 0  9994
2 57178  97.5077 254.0129 0010542  30.3133 329.8716 15.31747800167481
MONITOR-3 (RS58S)       
1 57180U 23091Q   26188.49869690  .00007131  00000+0  26119-3 0  9995
2 57180  97.5071 252.0979 0011811  36.0814 324.1220 15.28270173167396
MONITOR-4 (RS57S)       
1 57182U 23091S   26188.41115434  .00007474  00000+0  27290-3 0  9990
2 57182  97.5064 251.9820 0011823  36.7395 323.4653 15.28355253167381
MONITOR-2 (RS39S)       
1 57184U 23091U   26188.47030539  .00003285  00000+0  15955-3 0  9991
2 57184  97.5060 246.6230 0012107  48.9693 311.2586 15.19107607167037
SVYATOBOR 1 (RS60S)     
1 57187U 23091X   26188.50755714  .00005996  00000+0  22900-3 0  9996
2 57187  97.5077 252.4402 0009536  31.0396 329.1404 15.26976645167412
VIZARD-METEO (RS38S)    
1 57189U 23091Z   26188.53381157  .00012083  00000+0  33899-3 0  9991
2 57189  97.5078 258.4347 0006419  10.0320 350.1051 15.36705457167818
POLYTECH-UNIVERSE 3 (R*)
1 57191U 23091AB  26188.49476443  .00003729  00000+0  17926-3 0  9992
2 57191  97.5035 246.1516 0016660  62.6550 297.6378 15.19318420167035
UTMN 2 (RS27S)          
1 57203U 23091AP  26188.50083440  .00008706  00000+0  27907-3 0  9999
2 57203  97.5074 256.0090 0007561  18.3435 341.8077 15.32573713167658
